CCSDS_OMM_VERS = 2.0
CREATION_DATE  = 
ORIGINATOR     = 

OBJECT_NAME    = PRC TEST SPACECRAFT 4
OBJECT_ID      = 2026-024A
CENTER_NAME    = EARTH
REF_FRAME      = TEME
TIME_SYSTEM    = UTC
MEAN_ELEMENT_THEORY = SGP/SGP4

EPOCH          = 2026-02-17T06:17:43.736928
MEAN_MOTION    = 14.91673799
ECCENTRICITY   = .00061831
INCLINATION    = 49.9851
RA_OF_ASC_NODE = 118.6626
ARG_OF_PERICENTER = 281.3577
MEAN_ANOMALY   = 78.6670

EPHEMERIS_TYPE = 0
CLASSIFICATION_TYPE = U
NORAD_CAT_ID   = 67689
ELEMENT_SET_NO = 999
REV_AT_EPOCH   = 153
BSTAR          = .24586527E-4
MEAN_MOTION_DOT = .6E-7
MEAN_MOTION_DDOT = 0

CCSDS_OMM_VERS = 2.0
CREATION_DATE  = 
ORIGINATOR     = 

OBJECT_NAME    = CZ-2F R/B
OBJECT_ID      = 2026-024B
CENTER_NAME    = EARTH
REF_FRAME      = TEME
TIME_SYSTEM    = UTC
MEAN_ELEMENT_THEORY = SGP/SGP4

EPOCH          = 2026-02-17T05:56:40.970688
MEAN_MOTION    = 15.33456483
ECCENTRICITY   = .01768665
INCLINATION    = 49.9877
RA_OF_ASC_NODE = 117.0604
ARG_OF_PERICENTER = 190.1941
MEAN_ANOMALY   = 169.5413

EPHEMERIS_TYPE = 0
CLASSIFICATION_TYPE = U
NORAD_CAT_ID   = 67690
ELEMENT_SET_NO = 999
REV_AT_EPOCH   = 155
BSTAR          = .45746534E-3
MEAN_MOTION_DOT = .2469E-3
MEAN_MOTION_DDOT = 0

CCSDS_OMM_VERS = 2.0
CREATION_DATE  = 
ORIGINATOR     = 

OBJECT_NAME    = CZ-2F DEB
OBJECT_ID      = 2026-024C
CENTER_NAME    = EARTH
REF_FRAME      = TEME
TIME_SYSTEM    = UTC
MEAN_ELEMENT_THEORY = SGP/SGP4

EPOCH          = 2026-02-17T06:03:23.480640
MEAN_MOTION    = 15.69124181
ECCENTRICITY   = .02445696
INCLINATION    = 49.9083
RA_OF_ASC_NODE = 114.7581
ARG_OF_PERICENTER = 197.8701
MEAN_ANOMALY   = 161.3559

EPHEMERIS_TYPE = 0
CLASSIFICATION_TYPE = U
NORAD_CAT_ID   = 67691
ELEMENT_SET_NO = 999
REV_AT_EPOCH   = 157
BSTAR          = .91219608E-3
MEAN_MOTION_DOT = .720291E-2
MEAN_MOTION_DDOT = .10328075E-4

CCSDS_OMM_VERS = 2.0
CREATION_DATE  = 
ORIGINATOR     = 

OBJECT_NAME    = CZ-2F DEB
OBJECT_ID      = 2026-024D
CENTER_NAME    = EARTH
REF_FRAME      = TEME
TIME_SYSTEM    = UTC
MEAN_ELEMENT_THEORY = SGP/SGP4

EPOCH          = 2026-02-15T11:34:34.569984
MEAN_MOTION    = 15.15710043
ECCENTRICITY   = .0264941
INCLINATION    = 50.3154
RA_OF_ASC_NODE = 127.0852
ARG_OF_PERICENTER = 192.7826
MEAN_ANOMALY   = 266.1908

EPHEMERIS_TYPE = 0
CLASSIFICATION_TYPE = U
NORAD_CAT_ID   = 67692
ELEMENT_SET_NO = 999
REV_AT_EPOCH   = 62
BSTAR          = .50496E-2
MEAN_MOTION_DOT = .250388E-2
MEAN_MOTION_DDOT = 0

CCSDS_OMM_VERS = 2.0
CREATION_DATE  = 
ORIGINATOR     = 

OBJECT_NAME    = STARLINK-36748
OBJECT_ID      = 2026-025A
CENTER_NAME    = EARTH
REF_FRAME      = TEME
TIME_SYSTEM    = UTC
MEAN_ELEMENT_THEORY = SGP/SGP4

EPOCH          = 2026-02-17T06:00:02.000160
MEAN_MOTION    = 15.95978622
ECCENTRICITY   = .00014572
INCLINATION    = 97.2790
RA_OF_ASC_NODE = 158.6692
ARG_OF_PERICENTER = 56.2687
MEAN_ANOMALY   = 259.5811

EPHEMERIS_TYPE = 0
CLASSIFICATION_TYPE = U
NORAD_CAT_ID   = 67693
ELEMENT_SET_NO = 999
REV_AT_EPOCH   = 256
BSTAR          = -.36898764E-2
MEAN_MOTION_DOT = -.1487612E-1
MEAN_MOTION_DDOT = .65441318E-3

CCSDS_OMM_VERS = 2.0
CREATION_DATE  = 
ORIGINATOR     = 

OBJECT_NAME    = STARLINK-36753
OBJECT_ID      = 2026-025B
CENTER_NAME    = EARTH
REF_FRAME      = TEME
TIME_SYSTEM    = UTC
MEAN_ELEMENT_THEORY = SGP/SGP4

EPOCH          = 2026-02-17T06:00:02.000160
MEAN_MOTION    = 15.96753215
ECCENTRICITY   = .00015087
INCLINATION    = 97.2782
RA_OF_ASC_NODE = 158.6756
ARG_OF_PERICENTER = 55.6142
MEAN_ANOMALY   = 275.4118

EPHEMERIS_TYPE = 0
CLASSIFICATION_TYPE = U
NORAD_CAT_ID   = 67694
ELEMENT_SET_NO = 999
REV_AT_EPOCH   = 272
BSTAR          = -.35024654E-2
MEAN_MOTION_DOT = -.1472568E-1
MEAN_MOTION_DDOT = .64751291E-3

CCSDS_OMM_VERS = 2.0
CREATION_DATE  = 
ORIGINATOR     = 

OBJECT_NAME    = STARLINK-36750
OBJECT_ID      = 2026-025C
CENTER_NAME    = EARTH
REF_FRAME      = TEME
TIME_SYSTEM    = UTC
MEAN_ELEMENT_THEORY = SGP/SGP4

EPOCH          = 2026-02-17T06:00:02.000160
MEAN_MOTION    = 15.96269354
ECCENTRICITY   = .00012747
INCLINATION    = 97.2786
RA_OF_ASC_NODE = 158.6714
ARG_OF_PERICENTER = 61.4869
MEAN_ANOMALY   = 259.9078

EPHEMERIS_TYPE = 0
CLASSIFICATION_TYPE = U
NORAD_CAT_ID   = 67695
ELEMENT_SET_NO = 999
REV_AT_EPOCH   = 256
BSTAR          = -.36403449E-2
MEAN_MOTION_DOT = -.1490729E-1
MEAN_MOTION_DDOT = .65898192E-3

CCSDS_OMM_VERS = 2.0
CREATION_DATE  = 
ORIGINATOR     = 

OBJECT_NAME    = STARLINK-36401
OBJECT_ID      = 2026-025D
CENTER_NAME    = EARTH
REF_FRAME      = TEME
TIME_SYSTEM    = UTC
MEAN_ELEMENT_THEORY = SGP/SGP4

EPOCH          = 2026-02-17T06:00:02.000160
MEAN_MOTION    = 15.96494479
ECCENTRICITY   = .00013874
INCLINATION    = 97.2784
RA_OF_ASC_NODE = 158.6734
ARG_OF_PERICENTER = 58.4146
MEAN_ANOMALY   = 267.5218

EPHEMERIS_TYPE = 0
CLASSIFICATION_TYPE = U
NORAD_CAT_ID   = 67696
ELEMENT_SET_NO = 999
REV_AT_EPOCH   = 256
BSTAR          = -.35719417E-2
MEAN_MOTION_DOT = -.1480752E-1
MEAN_MOTION_DDOT = .65239278E-3

CCSDS_OMM_VERS = 2.0
CREATION_DATE  = 
ORIGINATOR     = 

OBJECT_NAME    = STARLINK-36704
OBJECT_ID      = 2026-025E
CENTER_NAME    = EARTH
REF_FRAME      = TEME
TIME_SYSTEM    = UTC
MEAN_ELEMENT_THEORY = SGP/SGP4

EPOCH          = 2026-02-17T06:00:02.000160
MEAN_MOTION    = 15.97015541
ECCENTRICITY   = .00014107
INCLINATION    = 97.2778
RA_OF_ASC_NODE = 158.6778
ARG_OF_PERICENTER = 59.5237
MEAN_ANOMALY   = 276.6082

EPHEMERIS_TYPE = 0
CLASSIFICATION_TYPE = U
NORAD_CAT_ID   = 67697
ELEMENT_SET_NO = 999
REV_AT_EPOCH   = 256
BSTAR          = -.34368696E-2
MEAN_MOTION_DOT = -.1465793E-1
MEAN_MOTION_DDOT = .64380832E-3

CCSDS_OMM_VERS = 2.0
CREATION_DATE  = 
ORIGINATOR     = 

OBJECT_NAME    = STARLINK-36697
OBJECT_ID      = 2026-025F
CENTER_NAME    = EARTH
REF_FRAME      = TEME
TIME_SYSTEM    = UTC
MEAN_ELEMENT_THEORY = SGP/SGP4

EPOCH          = 2026-02-17T06:00:02.000160
MEAN_MOTION    = 15.97198353
ECCENTRICITY   = .00014878
INCLINATION    = 97.2778
RA_OF_ASC_NODE = 158.6794
ARG_OF_PERICENTER = 55.7873
MEAN_ANOMALY   = 284.0920

EPHEMERIS_TYPE = 0
CLASSIFICATION_TYPE = U
NORAD_CAT_ID   = 67698
ELEMENT_SET_NO = 999
REV_AT_EPOCH   = 251
BSTAR          = -.33793967E-2
MEAN_MOTION_DOT = -.1455842E-1
MEAN_MOTION_DDOT = .63698452E-3

CCSDS_OMM_VERS = 2.0
CREATION_DATE  = 
ORIGINATOR     = 

OBJECT_NAME    = STARLINK-36716
OBJECT_ID      = 2026-025G
CENTER_NAME    = EARTH
REF_FRAME      = TEME
TIME_SYSTEM    = UTC
MEAN_ELEMENT_THEORY = SGP/SGP4

EPOCH          = 2026-02-17T06:00:02.000160
MEAN_MOTION    = 15.97443498
ECCENTRICITY   = .00013866
INCLINATION    = 97.2774
RA_OF_ASC_NODE = 158.6813
ARG_OF_PERICENTER = 55.0202
MEAN_ANOMALY   = 289.6561

EPHEMERIS_TYPE = 0
CLASSIFICATION_TYPE = U
NORAD_CAT_ID   = 67699
ELEMENT_SET_NO = 999
REV_AT_EPOCH   = 272
BSTAR          = -.33259583E-2
MEAN_MOTION_DOT = -.1452161E-1
MEAN_MOTION_DDOT = .63568021E-3

CCSDS_OMM_VERS = 2.0
CREATION_DATE  = 
ORIGINATOR     = 

OBJECT_NAME    = STARLINK-36712
OBJECT_ID      = 2026-025H
CENTER_NAME    = EARTH
REF_FRAME      = TEME
TIME_SYSTEM    = UTC
MEAN_ELEMENT_THEORY = SGP/SGP4

EPOCH          = 2026-02-17T06:00:02.000160
MEAN_MOTION    = 15.97680760
ECCENTRICITY   = .0001395
INCLINATION    = 97.2773
RA_OF_ASC_NODE = 158.6835
ARG_OF_PERICENTER = 56.3790
MEAN_ANOMALY   = 292.9500

EPHEMERIS_TYPE = 0
CLASSIFICATION_TYPE = U
NORAD_CAT_ID   = 67700
ELEMENT_SET_NO = 999
REV_AT_EPOCH   = 251
BSTAR          = -.32676649E-2
MEAN_MOTION_DOT = -.1445459E-1
MEAN_MOTION_DDOT = .63187322E-3

