PRC TEST SPACECRAFT 4   
1 67689U 26024A   26048.26231177  .00000006  00000+0  24587-4 0  9994
2 67689  49.9851 118.6626 0006183 281.3577  78.6670 14.91673799  1534
CZ-2F R/B               
1 67690U 26024B   26048.24769642  .00024690  00000+0  45747-3 0  9992
2 67690  49.9877 117.0604 0176866 190.1941 169.5413 15.33456483  1554
CZ-2F DEB               
1 67691U 26024C   26048.25235510  .00720291  10328-4  91220-3 0  9992
2 67691  49.9083 114.7581 0244569 197.8701 161.3559 15.69124181  1575
CZ-2F DEB               
1 67692U 26024D   26046.48234456  .00250388  00000+0  50496-2 0  9999
2 67692  50.3154 127.0852 0264941 192.7826 266.1908 15.15710043   623
STARLINK-36748          
1 67693U 26025A   26048.25002315 -.01487612  65441-3 -36899-2 0  9995
2 67693  97.2790 158.6692 0001457  56.2687 259.5811 15.95978622  2563
STARLINK-36753          
1 67694U 26025B   26048.25002315 -.01472568  64751-3 -35025-2 0  9993
2 67694  97.2782 158.6756 0001508  55.6142 275.4118 15.96753215  2727
STARLINK-36750          
1 67695U 26025C   26048.25002315 -.01490729  65898-3 -36403-2 0  9997
2 67695  97.2786 158.6714 0001274  61.4869 259.9078 15.96269354  2567
STARLINK-36401          
1 67696U 26025D   26048.25002315 -.01480752  65239-3 -35719-2 0  9991
2 67696  97.2784 158.6734 0001387  58.4146 267.5218 15.96494479  2566
STARLINK-36704          
1 67697U 26025E   26048.25002315 -.01465793  64381-3 -34369-2 0  9997
2 67697  97.2778 158.6778 0001410  59.5237 276.6082 15.97015541  2568
STARLINK-36697          
1 67698U 26025F   26048.25002315 -.01455842  63698-3 -33794-2 0  9993
2 67698  97.2778 158.6794 0001487  55.7873 284.0920 15.97198353  2517
STARLINK-36716          
1 67699U 26025G   26048.25002315 -.01452161  63568-3 -33260-2 0  9999
2 67699  97.2774 158.6813 0001386  55.0202 289.6561 15.97443498  2721
STARLINK-36712          
1 67700U 26025H   26048.25002315 -.01445459  63187-3 -32677-2 0  9992
2 67700  97.2773 158.6835 0001395  56.3790 292.9500 15.97680760  2515
